{
    "links": {
        "self": "http://www.neowsapp.com/rest/v1/neo/3561025?api_key=iIulBulltgU6a56xZRHN4H3l9WmuAYTsLGpBGhQ2"
    },
    "id": "3561025",
    "neo_reference_id": "3561025",
    "name": "(2011 GA3)",
    "designation": "2011 GA3",
    "nasa_jpl_url": "http://ssd.jpl.nasa.gov/sbdb.cgi?sstr=3561025",
    "absolute_magnitude_h": 25.3,
    "estimated_diameter": {
        "kilometers": {
            "estimated_diameter_min": 0.0231502122,
            "estimated_diameter_max": 0.0517654482
        },
        "meters": {
            "estimated_diameter_min": 23.150212221,
            "estimated_diameter_max": 51.7654482198
        },
        "miles": {
            "estimated_diameter_min": 0.0143848705,
            "estimated_diameter_max": 0.0321655483
        },
        "feet": {
            "estimated_diameter_min": 75.9521422633,
            "estimated_diameter_max": 169.8341531374
        }
    },
    "is_potentially_hazardous_asteroid": false,
    "close_approach_data": [
        {
            "close_approach_date": "2005-03-11",
            "close_approach_date_full": "2005-Mar-11 02:46",
            "epoch_date_close_approach": 1110509160000,
            "relative_velocity": {
                "kilometers_per_second": "16.4553955255",
                "kilometers_per_hour": "59239.4238917867",
                "miles_per_hour": "36809.0742509827"
            },
            "miss_distance": {
                "astronomical": "0.3592288627",
                "lunar": "139.7400275903",
                "kilometers": "53739872.702442449",
                "miles": "33392408.4707418362"
            },
            "orbiting_body": "Earth"
        },
        {
            "close_approach_date": "2008-03-23",
            "close_approach_date_full": "2008-Mar-23 15:05",
            "epoch_date_close_approach": 1206284700000,
            "relative_velocity": {
                "kilometers_per_second": "10.8878626348",
                "kilometers_per_hour": "39196.305485208",
                "miles_per_hour": "24355.0599277394"
            },
            "miss_distance": {
                "astronomical": "0.1758046553",
                "lunar": "68.3880109117",
                "kilometers": "26300001.968964211",
                "miles": "16342063.4319636718"
            },
            "orbiting_body": "Earth"
        },
        {
            "close_approach_date": "2011-04-12",
            "close_approach_date_full": "2011-Apr-12 19:13",
            "epoch_date_close_approach": 1302635580000,
            "relative_velocity": {
                "kilometers_per_second": "6.7834104441",
                "kilometers_per_hour": "24420.2775988872",
                "miles_per_hour": "15173.8108224863"
            },
            "miss_distance": {
                "astronomical": "0.0686229738",
                "lunar": "26.6943368082",
                "kilometers": "10265850.713545806",
                "miles": "6378903.8396958828"
            },
            "orbiting_body": "Earth"
        },
        {
            "close_approach_date": "2014-05-17",
            "close_approach_date_full": "2014-May-17 03:11",
            "epoch_date_close_approach": 1400296260000,
            "relative_velocity": {
                "kilometers_per_second": "8.5335592749",
                "kilometers_per_hour": "30720.8133897854",
                "miles_per_hour": "19088.7187421141"
            },
            "miss_distance": {
                "astronomical": "0.1480235573",
                "lunar": "57.5811637897",
                "kilometers": "22144008.881902951",
                "miles": "13759649.0758086838"
            },
            "orbiting_body": "Earth"
        },
        {
            "close_approach_date": "2017-06-04",
            "close_approach_date_full": "2017-Jun-04 22:24",
            "epoch_date_close_approach": 1496615040000,
            "relative_velocity": {
                "kilometers_per_second": "14.3063480827",
                "kilometers_per_hour": "51502.853097554",
                "miles_per_hour": "32001.8700260885"
            },
            "miss_distance": {
                "astronomical": "0.3146178139",
                "lunar": "122.3863296071",
                "kilometers": "47066154.823496393",
                "miles": "29245552.4730325034"
            },
            "orbiting_body": "Earth"
        }
    ],
    "orbital_data": {
        "orbit_id": "8",
        "orbit_determination_date": "2017-09-13 06:17:48",
        "first_observation_date": "2011-04-02",
        "last_observation_date": "2011-05-24",
        "data_arc_in_days": 52,
        "observations_used": 26,
        "orbit_uncertainty": "7",
        "minimum_orbit_intersection": ".0717243",
        "jupiter_tisserand_invariant": "3.582",
        "epoch_osculation": "2459000.5",
        "eccentricity": ".4948756297732478",
        "semi_major_axis": "2.094871702228976",
        "inclination": "5.263491133839524",
        "ascending_node_longitude": "178.1843528321046",
        "orbital_period": "1107.47663464381",
        "perihelion_distance": "1.058170749294256",
        "perihelion_argument": "34.16399410393704",
        "aphelion_distance": "3.131572655163696",
        "perihelion_time": "2458992.928463803982",
        "mean_anomaly": "2.461228476791288",
        "mean_motion": ".3250632913946617",
        "equinox": "J2000",
        "orbit_class": {
            "orbit_class_type": "AMO",
            "orbit_class_description": "Near-Earth asteroid orbits similar to that of 1221 Amor",
            "orbit_class_range": "1.017 AU < q (perihelion) < 1.3 AU"
        }
    },
    "is_sentry_object": false
}